NORAD_CAT_ID,OBJECT_NAME,OBJECT_TYPE,EPOCH,MEAN_MOTION,ECCENTRICITY,INCLINATION,RA_OF_ASC_NODE,ARG_OF_PERICENTER,MEAN_ANOMALY,BSTAR,MEAN_MOTION_DOT,MEAN_MOTION_DDOT,TLE_LINE0,TLE_LINE1,TLE_LINE2,SEMIMAJOR_AXIS,PERIOD,APOGEE,PERIGEE,DECAYED
55928.0,STARLINK-5930,PAYLOAD,2024-05-29 09:36:29,14.98330373,0.0003232,69.9984,141.395,266.0201,94.0589,3.0049e-05,2.66e-06,0.0,0 STARLINK-5930,1 55928U 23037Q   24150.40033612  .00000266  00000-0  30049-4 0  9999,2 55928  69.9984 141.3950 0003232 266.0201  94.0589 14.98330373 66239,6950.192,96.107,574.303,569.81,0.0
55928.0,STARLINK-5930,PAYLOAD,2024-05-30 04:50:05,14.98334119,0.0003197,69.9985,139.3752,265.2161,94.8633,2.2426e-05,1.75e-06,0.0,0 STARLINK-5930,1 55928U 23037Q   24151.20145322  .00000175  00000-0  22426-4 0  9999,2 55928  69.9985 139.3752 0003197 265.2161  94.8633 14.98334119 66693,6950.18,96.107,574.267,569.823,0.0
55928.0,STARLINK-5930,PAYLOAD,2024-05-30 09:38:29,14.98340253,0.0003076,69.9987,138.8701,262.3688,97.7122,9.5053e-05,1.042e-05,0.0,0 STARLINK-5930,1 55928U 23037Q   24151.40172625  .00001042  00000-0  95053-4 0  9997,2 55928  69.9987 138.8701 0003076 262.3688  97.7122 14.98340253 66726,6950.161,96.106,574.164,569.888,0.0
55928.0,STARLINK-5930,PAYLOAD,2024-05-31 04:52:12,14.98263069,0.0002495,70.0005,136.855,251.9898,108.0989,-0.00065724,-7.912e-05,0.0,0 STARLINK-5930,1 55928U 23037Q   24152.20292506 -.00007912  00000-0 -65724-3 0  9992,2 55928  70.0005 136.8550 0002495 251.9898 108.0989 14.98263069 66840,6950.4,96.111,573.999,570.531,0.0
55928.0,STARLINK-5930,PAYLOAD,2024-05-31 09:40:32,14.98325112,0.0002865,69.9992,136.3456,264.4986,95.5846,4.5815e-05,4.54e-06,0.0,0 STARLINK-5930,1 55928U 23037Q   24152.40315037  .00000454  00000-0  45815-4 0  9991,2 55928  69.9992 136.3456 0002865 264.4986  95.5846 14.98325112 66873,6950.208,96.107,574.064,570.082,0.0
55928.0,STARLINK-5930,PAYLOAD,2024-06-01 04:54:08,14.98335305,0.0003136,69.9986,134.3249,268.9511,91.1289,5.484e-05,5.61e-06,0.0,0 STARLINK-5930,1 55928U 23037Q   24153.20426561  .00000561  00000-0  54840-4 0  9992,2 55928  69.9986 134.3249 0003136 268.9511  91.1289 14.98335305 66990,6950.176,96.107,574.221,569.862,0.0
55928.0,STARLINK-5930,PAYLOAD,2024-06-01 08:06:24,14.98335847,0.0003111,69.9986,133.9885,265.5244,94.5559,6.4959e-05,6.82e-06,0.0,0 STARLINK-5930,1 55928U 23037Q   24153.33778502  .00000682  00000-0  64959-4 0  9997,2 55928  69.9986 133.9885 0003111 265.5244  94.5559 14.98335847 66673,6950.175,96.107,574.202,569.878,0.0
55928.0,STARLINK-5930,PAYLOAD,2024-06-02 04:56:09,14.98312332,0.0003541,69.9987,131.8003,278.6902,81.3856,0.00088845,0.00010519,0.0,0 STARLINK-5930,1 55928U 23037Q   24154.20566023  .00010519  00000-0  88845-3 0  9996,2 55928  69.9987 131.8003 0003541 278.6902  81.3856 14.98312332 67147,6950.248,96.108,574.574,569.651,0.0
55928.0,STARLINK-5930,PAYLOAD,2024-06-02 08:08:24,14.98348758,0.000384,69.9988,131.4637,280.6771,79.3955,0.00034483,4.026e-05,0.0,0 STARLINK-5930,1 55928U 23037Q   24154.33917016  .00004026  00000-0  34483-3 0  9997,2 55928  69.9988 131.4637 0003840 280.6771  79.3955 14.98348758 67166,6950.135,96.106,574.669,569.331,0.0
55928.0,STARLINK-5930,PAYLOAD,2024-06-02 22:33:37,14.9834464,0.0002626,70.0018,129.9485,266.3035,93.7823,6.8429e-05,7.24e-06,0.0,0 STARLINK-5930,1 55928U 23037Q   24154.94001728  .00000724  00000-0  68429-4 0  9997,2 55928  70.0018 129.9485 0002626 266.3035  93.7823 14.98344640 66913,6950.148,96.106,573.838,570.188,0.0
55928.0,STARLINK-5930,PAYLOAD,2024-06-03 04:58:10,14.98338164,0.0002566,70.0004,129.2767,267.1387,92.9478,-1.9912e-05,-3.31e-06,0.0,0 STARLINK-5930,1 55928U 23037Q   24155.20706206 -.00000331  00000-0 -19912-4 0  9999,2 55928  70.0004 129.2767 0002566 267.1387  92.9478 14.98338164 67299,6950.168,96.106,573.816,570.249,0.0
55928.0,STARLINK-5930,PAYLOAD,2024-06-03 08:10:26,14.98335133,0.0002732,70.0001,128.94,268.3788,91.7058,-5.903e-05,-7.97e-06,0.0,0 STARLINK-5930,1 55928U 23037Q   24155.34058404 -.00000797  00000-0 -59030-4 0  9995,2 55928  70.0001 128.9400 0002732 268.3788  91.7058 14.98335133 66977,6950.177,96.107,573.941,570.143,0.0
55928.0,STARLINK-5930,PAYLOAD,2024-06-03 20:59:30,14.9834588,0.0003078,69.9989,127.5924,270.5556,89.525,-0.00012978,-1.642e-05,0.0,0 STARLINK-5930,1 55928U 23037Q   24155.87465556 -.00001642  00000-0 -12978-3 0  9992,2 55928  69.9989 127.5924 0003078 270.5556  89.5250 14.98345880 67056,6950.144,96.106,574.148,569.87,0.0
55928.0,STARLINK-5930,PAYLOAD,2024-06-04 05:00:10,14.98347493,0.0003094,69.9991,126.7507,270.4055,89.675,-9.2542e-05,-1.198e-05,0.0,0 STARLINK-5930,1 55928U 23037Q   24156.20845010 -.00001198  00000-0 -92542-4 0  9999,2 55928  69.9991 126.7507 0003094 270.4055  89.6750 14.98347493 67449,6950.139,96.106,574.154,569.853,0.0
55928.0,STARLINK-5930,PAYLOAD,2024-06-04 08:12:25,14.98349852,0.0003004,69.9991,126.4138,270.584,89.4975,-6.2789e-05,-8.43e-06,0.0,0 STARLINK-5930,1 55928U 23037Q   24156.34196646 -.00000843  00000-0 -62789-4 0  9994,2 55928  69.9991 126.4138 0003004 270.5840  89.4975 14.98349852 67123,6950.132,96.106,574.084,569.909,0.0
55928.0,STARLINK-5930,PAYLOAD,2024-06-04 21:01:30,14.98331079,0.0002894,69.9993,125.0672,272.2073,87.8754,4.3674e-05,4.28e-06,0.0,0 STARLINK-5930,1 55928U 23037Q   24156.87605177  .00000428  00000-0  43674-4 0  9995,2 55928  69.9993 125.0672 0002894 272.2073  87.8754 14.98331079 67541,6950.19,96.107,574.066,570.043,0.0
55928.0,STARLINK-5930,PAYLOAD,2024-06-05 14:38:59,14.98330795,0.0002869,69.9994,123.2156,272.456,87.6271,2.1765e-05,1.67e-06,0.0,0 STARLINK-5930,1 55928U 23037Q   24157.61041157  .00000167  00000-0  21765-4 0  9997,2 55928  69.9994 123.2156 0002869 272.4560  87.6271 14.98330795 67315,6950.19,96.107,574.049,570.061,0.0
55928.0,STARLINK-5930,PAYLOAD,2024-06-06 05:04:12,14.98332815,0.0002705,69.9998,121.7019,268.0129,92.072,-1.66e-05,-2.91e-06,0.0,0 STARLINK-5930,1 55928U 23037Q   24158.21125052 -.00000291  00000-0 -16600-4 0  9993,2 55928  69.9998 121.7019 0002705 268.0129  92.0720 14.98332815 67742,6950.184,96.107,573.929,570.169,0.0
55928.0,STARLINK-5930,PAYLOAD,2024-06-06 06:40:20,14.98332738,0.0002704,69.9998,121.5336,268.0533,92.0316,-1.7231e-05,-2.99e-06,0.0,0 STARLINK-5930,1 55928U 23037Q   24158.27801045 -.00000299  00000-0 -17231-4 0  9991,2 55928  69.9998 121.5336 0002704 268.0533  92.0316 14.98332738 67419,6950.184,96.107,573.929,570.17,0.0
55928.0,STARLINK-5930,PAYLOAD,2024-06-07 14:43:01,14.98325266,0.0002696,70.0,118.1671,266.4051,93.68,5.9532e-05,6.17e-06,0.0,0 STARLINK-5930,1 55928U 23037Q   24159.61321457  .00000617  00000-0  59532-4 0  9996,2 55928  70.0000 118.1671 0002696 266.4051  93.6800 14.98325266 67612,6950.208,96.107,573.946,570.199,0.0
55928.0,STARLINK-5930,PAYLOAD,2024-06-07 22:43:41,14.98334581,0.0002801,69.9997,117.3254,270.3663,89.7175,-6.078e-06,-1.66e-06,0.0,0 STARLINK-5930,1 55928U 23037Q   24159.94701010 -.00000166  00000-0 -60780-5 0  9998,2 55928  69.9997 117.3254 0002801 270.3663  89.7175 14.98334581 67669,6950.179,96.107,573.99,570.097,0.0
55928.0,STARLINK-5930,PAYLOAD,2024-06-08 05:08:13,14.98339403,0.0002862,69.9991,116.6503,266.5445,93.5386,2.1977e-05,1.69e-06,0.0,0 STARLINK-5930,1 55928U 23037Q   24160.21404668  .00000169  00000-0  21977-4 0  9994,2 55928  69.9991 116.6503 0002862 266.5445  93.5386 14.98339403 68042,6950.164,96.106,574.018,570.04,0.0
55928.0,STARLINK-5930,PAYLOAD,2024-06-08 14:45:02,14.98329825,0.0002551,70.0011,115.6402,275.4865,84.6002,5.7426e-05,5.92e-06,0.0,0 STARLINK-5930,1 55928U 23037Q   24160.61461215  .00000592  00000-0  57426-4 0  9997,2 55928  70.0011 115.6402 0002551 275.4865  84.6002 14.98329825 67766,6950.193,96.107,573.831,570.285,0.0
55928.0,STARLINK-5930,PAYLOAD,2024-06-08 22:45:42,14.983273,0.0002749,69.9995,114.7994,273.2969,86.7875,5.5633e-05,5.71e-06,0.0,0 STARLINK-5930,1 55928U 23037Q   24160.94841302  .00000571  00000-0  55633-4 0  9997,2 55928  69.9995 114.7994 0002749 273.2969  86.7875 14.98327300 67813,6950.201,96.107,573.977,570.156,0.0
55928.0,STARLINK-5930,PAYLOAD,2024-06-09 14:47:03,14.98329698,0.0002741,70.0,113.1157,279.2169,80.868,-8.701e-06,-1.97e-06,0.0,0 STARLINK-5930,1 55928U 23037Q   24161.61601524 -.00000197  00000-0 -87010-5 0  9993,2 55928  70.0000 113.1157 0002741 279.2169  80.8680 14.98329698 67919,6950.194,96.107,573.964,570.154,0.0
55928.0,STARLINK-5930,PAYLOAD,2024-06-09 21:11:35,14.98330939,0.0002897,69.9994,112.4425,270.0941,89.9886,3.062e-05,2.72e-06,0.0,0 STARLINK-5930,1 55928U 23037Q   24161.88305276  .00000272  00000-0  30620-4 0  9993,2 55928  69.9994 112.4425 0002897 270.0941  89.9886 14.98330939 68297,6950.19,96.107,574.068,570.042,0.0
55928.0,STARLINK-5930,PAYLOAD,2024-06-09 22:47:43,14.98330809,0.0002872,69.9992,112.2742,270.2903,89.7927,1.3249e-05,6.5e-07,0.0,0 STARLINK-5930,1 55928U 23037Q   24161.94981334  .00000065  00000-0  13249-4 0  9993,2 55928  69.9992 112.2742 0002872 270.2903  89.7927 14.98330809 67961,6950.19,96.107,574.051,570.059,0.0
55928.0,STARLINK-5930,PAYLOAD,2024-06-10 06:48:23,14.98334923,0.0002942,69.9993,111.4331,270.3098,89.7724,2.6264e-05,2.2e-06,0.0,0 STARLINK-5930,1 55928U 23037Q   24162.28361009  .00000220  00000-0  26264-4 0  9996,2 55928  69.9993 111.4331 0002942 270.3098  89.7724 14.98334923 68014,6950.178,96.107,574.087,569.998,0.0
55928.0,STARLINK-5930,PAYLOAD,2024-06-10 21:13:36,14.98327814,0.0002941,69.9994,109.9182,271.9049,88.1773,8.6727e-05,9.42e-06,0.0,0 STARLINK-5930,1 55928U 23037Q   24162.88445256  .00000942  00000-0  86727-4 0  9990,2 55928  69.9994 109.9182 0002941 271.9049  88.1773 14.98327814 68448,6950.2,96.107,574.109,570.021,0.0
55928.0,STARLINK-5930,PAYLOAD,2024-06-10 22:49:44,14.98327469,0.0002948,69.9994,109.7499,271.8573,88.2248,8.2056e-05,8.86e-06,0.0,0 STARLINK-5930,1 55928U 23037Q   24162.95121300  .00000886  00000-0  82056-4 0  9997,2 55928  69.9994 109.7499 0002948 271.8573  88.2248 14.98327469 68113,6950.201,96.107,574.115,570.017,0.0
